start=new Date('2022-06-12T00:00:00.000Z').valueOf();
sats=[{"INCLINATION":"53.2176","MEAN_MOTION_DOT":"0.00001038","COUNTRY_CODE":"US","OBJECT_TYPE":"PAYLOAD","CENTER_NAME":"EARTH","RA_OF_ASC_NODE":"165.6191","GP_ID":"205928931","RCS_SIZE":"LARGE","ECCENTRICITY":"0.00039480","TLE_LINE2":"2 49755  53.2176 165.6191 0003948  38.5894 321.5380 15.08841019 29174","MEAN_ANOMALY":"321.5380","NORAD_CAT_ID":"49755","ARG_OF_PERICENTER":"38.5894","OBJECT_ID":"2021-115AH","EPOCH":"2022-06-11T17:36:54.005760","PERIOD":"95.437","TLE_LINE1":"1 49755U 21115AH  22162.73395840  .00001038  00000-0  83353-4 0  9990","ELEMENT_SET_NO":"999","TIME_SYSTEM":"UTC","REF_FRAME":"TEME","CLASSIFICATION_TYPE":"U","SITE":"AFETR","LAUNCH_DATE":"2021-12-02","OBJECT_NAME":"STARLINK-3210","FILE":"3492149","PERIAPSIS":"537.011","EPHEMERIS_TYPE":"0","MEAN_ELEMENT_THEORY":"SGP4","MEAN_MOTION":"15.08841019","APOAPSIS":"542.473","DECAY_DATE":null,"MEAN_MOTION_DDOT":"0.0000000000000","BSTAR":"0.00008335300000","REV_AT_EPOCH":"2917","SEMIMAJOR_AXIS":"6917.877"},{"GP_ID":"205929180","RA_OF_ASC_NODE":"155.8227","RCS_SIZE":"LARGE","INCLINATION":"53.2148","MEAN_MOTION_DOT":"-0.00001104","COUNTRY_CODE":"US","OBJECT_TYPE":"PAYLOAD","CENTER_NAME":"EARTH","TLE_LINE1":"1 49756U 21115AJ  22162.69073253 -.00001104  00000-0 -51258-4 0  9992","MEAN_ANOMALY":"302.5897","NORAD_CAT_ID":"49756","ECCENTRICITY":"0.00019710","TLE_LINE2":"2 49756  53.2148 155.8227 0001971  57.5286 302.5897 15.08839133 29306","PERIOD":"95.438","EPOCH":"2022-06-11T16:34:39.290592","OBJECT_ID":"2021-115AJ","ARG_OF_PERICENTER":"57.5286","FILE":"3492149","PERIAPSIS":"538.385","LAUNCH_DATE":"2021-12-02","SITE":"AFETR","OBJECT_NAME":"STARLINK-3207","CLASSIFICATION_TYPE":"U","MEAN_MOTION":"15.08839133","MEAN_ELEMENT_THEORY":"SGP4","EPHEMERIS_TYPE":"0","MEAN_MOTION_DDOT":"0.0000000000000","DECAY_DATE":null,"APOAPSIS":"541.112","TIME_SYSTEM":"UTC","ELEMENT_SET_NO":"999","REF_FRAME":"TEME","REV_AT_EPOCH":"2930","SEMIMAJOR_AXIS":"6917.883","BSTAR":"-0.00005125800000"},{"INCLINATION":"53.2149","MEAN_MOTION_DOT":"-0.00002356","COUNTRY_CODE":"US","OBJECT_TYPE":"PAYLOAD","CENTER_NAME":"EARTH","RA_OF_ASC_NODE":"155.8591","GP_ID":"205927930","RCS_SIZE":"LARGE","ECCENTRICITY":"0.00025560","TLE_LINE2":"2 49757  53.2149 155.8591 0002556  51.4467 308.6754 15.08816665 29300","NORAD_CAT_ID":"49757","MEAN_ANOMALY":"308.6754","OBJECT_ID":"2021-115AK","ARG_OF_PERICENTER":"51.4467","EPOCH":"2022-06-11T16:24:04.284288","PERIOD":"95.439","TLE_LINE1":"1 49757U 21115AK  22162.68338292 -.00002356  00000-0 -13000-3 0  9991","TIME_SYSTEM":"UTC","ELEMENT_SET_NO":"999","REF_FRAME":"TEME","OBJECT_NAME":"STARLINK-3197","SITE":"AFETR","LAUNCH_DATE":"2021-12-02","CLASSIFICATION_TYPE":"U","FILE":"3492149","PERIAPSIS":"538.048","EPHEMERIS_TYPE":"0","MEAN_ELEMENT_THEORY":"SGP4","MEAN_MOTION":"15.08816665","APOAPSIS":"541.585","DECAY_DATE":null,"MEAN_MOTION_DDOT":"0.0000000000000","BSTAR":"-0.00013000000000","REV_AT_EPOCH":"2930","SEMIMAJOR_AXIS":"6917.952"},{"SITE":"AFETR","LAUNCH_DATE":"2021-12-02","OBJECT_NAME":"STARLINK-3194","CLASSIFICATION_TYPE":"U","PERIAPSIS":"538.238","FILE":"3492149","DECAY_DATE":null,"APOAPSIS":"541.277","MEAN_MOTION_DDOT":"0.0000000000000","MEAN_ELEMENT_THEORY":"SGP4","EPHEMERIS_TYPE":"0","MEAN_MOTION":"15.08835999","TIME_SYSTEM":"UTC","ELEMENT_SET_NO":"999","REF_FRAME":"TEME","REV_AT_EPOCH":"2930","SEMIMAJOR_AXIS":"6917.893","BSTAR":"-0.00002121200000","RA_OF_ASC_NODE":"155.7899","GP_ID":"205928180","RCS_SIZE":"LARGE","COUNTRY_CODE":"US","MEAN_MOTION_DOT":"-0.00000626","INCLINATION":"53.2162","OBJECT_TYPE":"PAYLOAD","CENTER_NAME":"EARTH","TLE_LINE1":"1 49758U 21115AL  22162.69808573 -.00000626  00000-0 -21212-4 0  9990","ECCENTRICITY":"0.00021970","TLE_LINE2":"2 49758  53.2162 155.7899 0002197  49.5783 310.5400 15.08835999 29307","MEAN_ANOMALY":"310.5400","NORAD_CAT_ID":"49758","ARG_OF_PERICENTER":"49.5783","OBJECT_ID":"2021-115AL","PERIOD":"95.438","EPOCH":"2022-06-11T16:45:14.607072"},{"SEMIMAJOR_AXIS":"6917.886","REV_AT_EPOCH":"2930","BSTAR":"0.00009632200000","DECAY_DATE":null,"APOAPSIS":"541.436","MEAN_MOTION_DDOT":"0.0000000000000","EPHEMERIS_TYPE":"0","MEAN_ELEMENT_THEORY":"SGP4","MEAN_MOTION":"15.08838234","LAUNCH_DATE":"2021-12-02","SITE":"AFETR","OBJECT_NAME":"STARLINK-3204","CLASSIFICATION_TYPE":"U","PERIAPSIS":"538.066","FILE":"3492149","REF_FRAME":"TEME","TIME_SYSTEM":"UTC","ELEMENT_SET_NO":"999","TLE_LINE1":"1 49759U 21115AM  22162.68704250  .00001245  00000-0  96322-4 0  9997","ARG_OF_PERICENTER":"44.4077","OBJECT_ID":"2021-115AM","EPOCH":"2022-06-11T16:29:20.472000","PERIOD":"95.438","ECCENTRICITY":"0.00024360","TLE_LINE2":"2 49759  53.2166 155.8428 0002436  44.4077 315.7110 15.08838234 29307","MEAN_ANOMALY":"315.7110","NORAD_CAT_ID":"49759","RCS_SIZE":"LARGE","RA_OF_ASC_NODE":"155.8428","GP_ID":"205929431","OBJECT_TYPE":"PAYLOAD","CENTER_NAME":"EARTH","COUNTRY_CODE":"US","MEAN_MOTION_DOT":"0.00001245","INCLINATION":"53.2166"},{"SEMIMAJOR_AXIS":"6917.881","REV_AT_EPOCH":"2931","BSTAR":"0.00001136100000","APOAPSIS":"541.438","DECAY_DATE":null,"MEAN_MOTION_DDOT":"0.0000000000000","EPHEMERIS_TYPE":"0","MEAN_ELEMENT_THEORY":"SGP4","MEAN_MOTION":"15.08839652","OBJECT_NAME":"STARLINK-3199","SITE":"AFETR","LAUNCH_DATE":"2021-12-02","CLASSIFICATION_TYPE":"U","FILE":"3492149","PERIAPSIS":"538.055","REF_FRAME":"TEME","ELEMENT_SET_NO":"999","TIME_SYSTEM":"UTC","TLE_LINE1":"1 49760U 21115AN  22162.70544176 -.00000108  00000-0  11361-4 0  9999","OBJECT_ID":"2021-115AN","ARG_OF_PERICENTER":"44.1024","EPOCH":"2022-06-11T16:55:50.168064","PERIOD":"95.438","TLE_LINE2":"2 49760  53.2192 155.7425 0002445  44.1024 316.0163 15.08839652 29311","ECCENTRICITY":"0.00024450","NORAD_CAT_ID":"49760","MEAN_ANOMALY":"316.0163","RCS_SIZE":"LARGE","RA_OF_ASC_NODE":"155.7425","GP_ID":"205929680","CENTER_NAME":"EARTH","OBJECT_TYPE":"PAYLOAD","COUNTRY_CODE":"US","INCLINATION":"53.2192","MEAN_MOTION_DOT":"-0.00000108"},{"RCS_SIZE":"LARGE","GP_ID":"205928430","RA_OF_ASC_NODE":"155.8148","OBJECT_TYPE":"PAYLOAD","CENTER_NAME":"EARTH","COUNTRY_CODE":"US","INCLINATION":"53.2169","MEAN_MOTION_DOT":"0.00000983","TLE_LINE1":"1 49761U 21115AP  22162.69441351  .00000983  00000-0  79917-4 0  9990","PERIOD":"95.438","EPOCH":"2022-06-11T16:39:57.327264","OBJECT_ID":"2021-115AP","ARG_OF_PERICENTER":"48.0136","NORAD_CAT_ID":"49761","MEAN_ANOMALY":"312.1048","TLE_LINE2":"2 49761  53.2169 155.8148 0002258  48.0136 312.1048 15.08826287 29306","ECCENTRICITY":"0.00022580","MEAN_MOTION_DDOT":"0.0000000000000","APOAPSIS":"541.349","DECAY_DATE":null,"MEAN_MOTION":"15.08826287","MEAN_ELEMENT_THEORY":"SGP4","EPHEMERIS_TYPE":"0","PERIAPSIS":"538.225","FILE":"3492149","SITE":"AFETR","LAUNCH_DATE":"2021-12-02","OBJECT_NAME":"STARLINK-3203","CLASSIFICATION_TYPE":"U","REF_FRAME":"TEME","TIME_SYSTEM":"UTC","ELEMENT_SET_NO":"999","SEMIMAJOR_AXIS":"6917.922","REV_AT_EPOCH":"2930","BSTAR":"0.00007991700000"},{"REV_AT_EPOCH":"2931","SEMIMAJOR_AXIS":"6917.890","BSTAR":"-0.00003332700000","FILE":"3492149","PERIAPSIS":"537.827","SITE":"AFETR","LAUNCH_DATE":"2021-12-02","OBJECT_NAME":"STARLINK-3195","CLASSIFICATION_TYPE":"U","MEAN_MOTION_DDOT":"0.0000000000000","DECAY_DATE":null,"APOAPSIS":"541.682","MEAN_MOTION":"15.08836986","EPHEMERIS_TYPE":"0","MEAN_ELEMENT_THEORY":"SGP4","ELEMENT_SET_NO":"999","TIME_SYSTEM":"UTC","REF_FRAME":"TEME","TLE_LINE1":"1 49762U 21115AQ  22162.71280031 -.00000819  00000-0 -33327-4 0  9995","NORAD_CAT_ID":"49762","MEAN_ANOMALY":"319.9667","TLE_LINE2":"2 49762  53.2195 155.7272 0002786  40.1530 319.9667 15.08836986 29310","ECCENTRICITY":"0.00027860","EPOCH":"2022-06-11T17:06:25.946784","PERIOD":"95.438","OBJECT_ID":"2021-115AQ","ARG_OF_PERICENTER":"40.1530","GP_ID":"205928680","RA_OF_ASC_NODE":"155.7272","RCS_SIZE":"LARGE","COUNTRY_CODE":"US","INCLINATION":"53.2195","MEAN_MOTION_DOT":"-0.00000819","CENTER_NAME":"EARTH","OBJECT_TYPE":"PAYLOAD"},{"OBJECT_TYPE":"PAYLOAD","CENTER_NAME":"EARTH","COUNTRY_CODE":"US","MEAN_MOTION_DOT":"-0.00001070","INCLINATION":"53.2193","RCS_SIZE":"LARGE","GP_ID":"205928932","RA_OF_ASC_NODE":"155.7541","PERIOD":"95.438","EPOCH":"2022-06-11T16:50:32.729280","ARG_OF_PERICENTER":"50.0432","OBJECT_ID":"2021-115AR","NORAD_CAT_ID":"49763","MEAN_ANOMALY":"310.0768","TLE_LINE2":"2 49763  53.2193 155.7541 0002371  50.0432 310.0768 15.08835733 29312","ECCENTRICITY":"0.00023710","TLE_LINE1":"1 49763U 21115AR  22162.70176770 -.00001070  00000-0 -49149-4 0  9998","REF_FRAME":"TEME","TIME_SYSTEM":"UTC","ELEMENT_SET_NO":"999","MEAN_MOTION_DDOT":"0.0000000000000","APOAPSIS":"541.399","DECAY_DATE":null,"MEAN_MOTION":"15.08835733","MEAN_ELEMENT_THEORY":"SGP4","EPHEMERIS_TYPE":"0","FILE":"3492149","PERIAPSIS":"538.118","SITE":"AFETR","LAUNCH_DATE":"2021-12-02","OBJECT_NAME":"STARLINK-3198","CLASSIFICATION_TYPE":"U","BSTAR":"-0.00004914900000","SEMIMAJOR_AXIS":"6917.893","REV_AT_EPOCH":"2931"},{"ELEMENT_SET_NO":"999","TIME_SYSTEM":"UTC","REF_FRAME":"TEME","FILE":"3492149","PERIAPSIS":"538.001","SITE":"AFETR","LAUNCH_DATE":"2021-12-02","OBJECT_NAME":"STARLINK-3206","CLASSIFICATION_TYPE":"U","MEAN_MOTION":"15.08841123","MEAN_ELEMENT_THEORY":"SGP4","EPHEMERIS_TYPE":"0","MEAN_MOTION_DDOT":"0.0000000000000","DECAY_DATE":null,"APOAPSIS":"541.482","BSTAR":"0.00010472000000","REV_AT_EPOCH":"3043","SEMIMAJOR_AXIS":"6917.877","INCLINATION":"53.2184","MEAN_MOTION_DOT":"0.00001379","COUNTRY_CODE":"US","CENTER_NAME":"EARTH","OBJECT_TYPE":"PAYLOAD","GP_ID":"205929181","RA_OF_ASC_NODE":"155.6894","RCS_SIZE":"LARGE","MEAN_ANOMALY":"317.6504","NORAD_CAT_ID":"49764","TLE_LINE2":"2 49764  53.2184 155.6894 0002516  42.4682 317.6504 15.08841123 30432","ECCENTRICITY":"0.00025160","PERIOD":"95.437","EPOCH":"2022-06-11T17:17:02.113440","OBJECT_ID":"2021-115AS","ARG_OF_PERICENTER":"42.4682","TLE_LINE1":"1 49764U 21115AS  22162.72016335  .00001379  00000-0  10472-3 0  9997"}];
